ORBCOMM FM20            
1 25416U 98046D   26016.34505833  .00000515  00000+0  21654-3 0  9992
2 25416  44.9932 251.4181 0001131 337.9122  22.1677 14.37754044434933
ORBCOMM FM16            
1 25417U 98046E   26016.63090439  .00000563  00000+0  22366-3 0  9990
2 25417  44.9922 238.6866 0004090 304.2032  55.8429 14.39646553435008
ORBCOMM FM15            
1 25418U 98046F   26016.59181397  .00000594  00000+0  23517-3 0  9993
2 25418  44.9954 244.6716 0003931 305.8690  54.1794 14.39272638434987
ORBCOMM FM14            
1 25419U 98046G   26016.34357958  .00000660  00000+0  25417-3 0  9990
2 25419  44.9944 243.4283 0002628 303.5326  56.5272 14.39699565434929
ORBCOMM FM13            
1 25420U 98046H   26016.37490263  .00000539  00000+0  22189-3 0  9990
2 25420  44.9964 253.4430 0004737 280.0211  80.0102 14.38291307433927
ORBCOMM FM21            
1 25475U 98053A   26016.57440566  .00000523  00000+0  21849-3 0  9996
2 25475  45.0098 338.5811 0002498 271.8408  88.2154 14.37877669427956
ORBCOMM FM22            
1 25476U 98053B   26016.30766849  .00000770  00000+0  29263-3 0  9995
2 25476  45.0090 332.8633 0003560 250.4328 109.6136 14.39077849427966
ORBCOMM FM23            
1 25477U 98053C   26016.61311235  .00000607  00000+0  24493-3 0  9994
2 25477  45.0098 340.1720 0003015 254.3586 105.6929 14.38126907428111
